[{"OBJECT_NAME":"YAOGAN-22","OBJECT_ID":"2014-063A","EPOCH":"2026-03-09T22:32:09.245760","MEAN_MOTION":13.15527162,"ECCENTRICITY":0.00066374,"INCLINATION":100.7539,"RA_OF_ASC_NODE":218.6258,"ARG_OF_PERICENTER":57.4372,"MEAN_ANOMALY":302.7379,"EPHEMERIS_TYPE":0,"CLASSIFICATION_TYPE":"U","NORAD_CAT_ID":40275,"ELEMENT_SET_NO":999,"REV_AT_EPOCH":54676,"BSTAR":6.3182543e-5,"MEAN_MOTION_DOT":-2.3e-7,"MEAN_MOTION_DDOT":0},{"OBJECT_NAME":"ONEWEB-0262","OBJECT_ID":"2021-060P","EPOCH":"2026-03-09T22:32:44.469312","MEAN_MOTION":13.16593742,"ECCENTRICITY":0.00019142,"INCLINATION":87.9003,"RA_OF_ASC_NODE":248.5097,"ARG_OF_PERICENTER":94.8576,"MEAN_ANOMALY":265.2774,"EPHEMERIS_TYPE":0,"CLASSIFICATION_TYPE":"U","NORAD_CAT_ID":48980,"ELEMENT_SET_NO":999,"REV_AT_EPOCH":22656,"BSTAR":0.00018040943,"MEAN_MOTION_DOT":8.2e-7,"MEAN_MOTION_DDOT":0}]
